IRIDIUM 136             
1 42962U 17061H   24274.75553894  .00000169  00000+0  53217-4 0  9990
2 42962  86.3914 286.1859 0002188  91.9659 268.1787 14.34217564365339
